{"fetched_at":"2026-06-14T08:17:21Z","count":15259,"tles":[{"name":"SEAHAWK-1","line1":"1 43820U 18099BQ  26164.39073709  .00008418  00000+0  36331-3 0  9990","line2":"2 43820  97.3967 216.9339 0007063 331.5533  28.5317 15.22749828411956","category":"Other"},{"name":"GLOBAL-2","line1":"1 43812U 18099BG  26164.62588689  .00003056  00000+0  19890-3 0  9999","line2":"2 43812  97.3561 201.2874 0006683 151.8655 208.2936 15.08654664411370","category":"Other"},{"name":"RANGE-A","line1":"1 43773U 18099R   26164.60757313  .00004993  00000+0  28323-3 0  9997","line2":"2 43773  97.3967 207.2911 0010221   9.3943 350.7478 15.13359880411950","category":"Other"},{"name":"ISAT","line1":"1 43879U 18111D   26164.38972113  .00087414  00000+0  89724-3 0  9992","line2":"2 43879  97.5885  99.3207 0000925  74.7071 285.4290 15.64649079410575","category":"Other"},{"name":"COSMOS 2531 (RODNIK-S *)","line1":"1 43752U 18097B   26164.61572730 -.00000079  00000+0 -63997-3 0  9990","line2":"2 43752  82.5195 225.5540 0017802  65.7860 294.5078 12.42912174341866","category":"Other"},{"name":"SIRION PATHFINDER-2","line1":"1 43759U 18099B   26164.61404018  .00005243  00000+0  28799-3 0  9999","line2":"2 43759  97.4258 213.7562 0007475 319.8763  40.1916 15.14519610412080","category":"Other"},{"name":"JILIN-1 09","line1":"1 43943U 19005B   26164.62629387  .00005015  00000+0  23271-3 0  9998","line2":"2 43943  97.4742 259.6189 0003793 101.6609 258.5052 15.20485957408604","category":"Other"},{"name":"EGYPTSAT-A (MISRSAT-A)","line1":"1 44047U 19008A   26164.60923646  .00001467  00000+0  23996-3 0  9991","line2":"2 44047  98.0159 229.4189 0001269  93.7930 266.3422 14.72304580392718","category":"Other"},{"name":"SUOMI-100","line1":"1 43804U 18099AY  26164.14705133  .00011498  00000+0  41885-3 0  9990","line2":"2 43804  97.4198 224.5551 0008362 296.4725  63.5657 15.28327206412800","category":"Weather"},{"name":"ITASAT","line1":"1 43786U 18099AE  26164.39864699  .00006652  00000+0  32032-3 0  9999","line2":"2 43786  97.4035 215.9856 0012520  13.7226 346.4347 15.19012840412330","category":"Other"},{"name":"SAUDISAT 5A","line1":"1 43831U 18102A   26164.62858237  .00005717  00000+0  21156-3 0  9998","line2":"2 43831  97.3074 226.2778 0010782 140.0935 220.1100 15.28013766415134","category":"Other"},{"name":"EMISAT","line1":"1 44078U 19018A   26164.60965444  .00000535  00000+0  17025-3 0  9999","line2":"2 44078  98.4652 223.4297 0017502 226.0638 133.9108 14.43686793379544","category":"Other"},{"name":"ASTROCAST 0.1","line1":"1 43798U 18099AS  26164.51561914  .00036570  00000+0  66794-3 0  9994","line2":"2 43798  97.4385 242.8985 0004868 216.7330 143.3587 15.49307248413861","category":"Other"},{"name":"SNUGLITE","line1":"1 43784U 18099AC  26164.40881707  .00011646  00000+0  44063-3 0  9994","line2":"2 43784  97.3878 218.7258 0001331 323.8101  36.3048 15.27101586412747","category":"Other"},{"name":"JY1SAT (JO-97)","line1":"1 43803U 18099AX  26164.63760191  .00017370  00000+0  53730-3 0  9995","line2":"2 43803  97.4136 227.4593 0004186 279.7788  80.2982 15.33549677413084","category":"Other"},{"name":"SAUDISAT 5B","line1":"1 43833U 18102C   26164.64802630  .00005497  00000+0  20192-3 0  9992","line2":"2 43833  97.3183 229.3601 0011432 142.3453 217.8589 15.28272533415255","category":"Other"},{"name":"COSMOS 2532 (RODNIK-S *)","line1":"1 43753U 18097C   26164.64399442  .00000000  00000+0 -69212-4 0  9991","line2":"2 43753  82.5138 224.3240 0019201  67.5158 292.7953 12.42909394341832","category":"Other"},{"name":"CENTAURI-1","line1":"1 43809U 18099BD  26164.64261519  .00005556  00000+0  28932-3 0  9991","line2":"2 43809  97.4226 216.4379 0013436 346.9815  13.1070 15.16332778411967","category":"Other"},{"name":"SNUSAT-2","line1":"1 43782U 18099AA  26164.05935128  .00008048  00000+0  35739-3 0  9992","line2":"2 43782  97.4065 217.5063 0008789 315.7820  44.2713 15.21779173412404","category":"Other"},{"name":"ESEO","line1":"1 43792U 18099AL  26164.58822006  .00002201  00000+0  16233-3 0  9994","line2":"2 43792  97.3970 202.1302 0011700 351.9326   8.1711 15.04234645411266","category":"Other"}]}