OBJECT_NAME,OBJECT_ID,EPOCH,MEAN_MOTION,ECCENTRICITY,INCLINATION,RA_OF_ASC_NODE,ARG_OF_PERICENTER,MEAN_ANOMALY,EPHEMERIS_TYPE,CLASSIFICATION_TYPE,NORAD_CAT_ID,ELEMENT_SET_NO,REV_AT_EPOCH,BSTAR,MEAN_MOTION_DOT,MEAN_MOTION_DDOT
COSMOS 2531 (RODNIK-S 17),2018-097B,2026-06-13T14:46:38.838720,12.42912174,.00178021,82.5195,225.5540,65.7860,294.5078,0,U,43752,999,34186,-.63997491E-3,-.79E-6,0
COSMOS 2532 (RODNIK-S 18),2018-097C,2026-06-13T15:27:21.117888,12.42909394,.00192014,82.5138,224.3240,67.5158,292.7953,0,U,43753,999,34183,-.69212248E-4,0,0
SIRION PATHFINDER-2,2018-099B,2026-06-13T14:44:13.071552,15.14519610,.00074756,97.4258,213.7562,319.8763,40.1916,0,U,43759,999,41208,.28799208E-3,.5243E-4,0
RANGE-A,2018-099R,2026-06-13T14:34:54.318432,15.13359880,.00102216,97.3967,207.2911,9.3943,350.7478,0,U,43773,999,41195,.28322993E-3,.4993E-4,0
SNUSAT-2,2018-099AA,2026-06-13T01:25:27.950592,15.21779173,.00087891,97.4065,217.5063,315.7820,44.2713,0,U,43782,999,41240,.35738815E-3,.8048E-4,0
SNUGLITE,2018-099AC,2026-06-13T09:48:41.794848,15.27101586,.00013311,97.3878,218.7258,323.8101,36.3048,0,U,43784,999,41274,.4406339E-3,.11646E-3,0
ITASAT,2018-099AE,2026-06-13T09:34:03.099936,15.19012840,.00125202,97.4035,215.9856,13.7226,346.4347,0,U,43786,999,41233,.3203202E-3,.6652E-4,0
ESEO,2018-099AL,2026-06-13T14:07:02.213184,15.04234645,.00117001,97.3970,202.1302,351.9326,8.1711,0,U,43792,999,41126,.16233016E-3,.2201E-4,0
ASTROCAST 0.1,2018-099AS,2026-06-13T12:22:29.493696,15.49307248,.00048687,97.4385,242.8985,216.7330,143.3587,0,U,43798,999,41386,.66794456E-3,.3657E-3,0
JY1SAT (JO-97),2018-099AX,2026-06-13T15:18:08.805024,15.33549677,.00041861,97.4136,227.4593,279.7788,80.2982,0,U,43803,999,41308,.53730046E-3,.1737E-3,0
SUOMI-100,2018-099AY,2026-06-13T03:31:45.234912,15.28327206,.00083625,97.4198,224.5551,296.4725,63.5657,0,U,43804,999,41280,.41884865E-3,.11498E-3,0
CENTAURI-1,2018-099BD,2026-06-13T15:25:21.952416,15.16332778,.00134361,97.4226,216.4379,346.9815,13.1070,0,U,43809,999,41196,.28931846E-3,.5556E-4,0
GLOBAL-2,2018-099BG,2026-06-13T15:01:16.627296,15.08654664,.00066833,97.3561,201.2874,151.8655,208.2936,0,U,43812,999,41137,.19890396E-3,.3056E-4,0
SEAHAWK-1,2018-099BQ,2026-06-13T09:22:39.684576,15.22749828,.00070638,97.3967,216.9339,331.5533,28.5317,0,U,43820,999,41195,.36331115E-3,.8418E-4,0
SAUDISAT 5A,2018-102A,2026-06-13T15:05:09.516768,15.28013766,.00107823,97.3074,226.2778,140.0935,220.1100,0,U,43831,999,41513,.21156369E-3,.5717E-4,0
SAUDISAT 5B,2018-102C,2026-06-13T15:33:09.472320,15.28272533,.00114324,97.3183,229.3601,142.3453,217.8589,0,U,43833,999,41525,.20192431E-3,.5497E-4,0
ISAT,2018-111D,2026-06-13T09:21:11.905632,15.64649079,.00009258,97.5885,99.3207,74.7071,285.4290,0,U,43879,999,41057,.89724331E-3,.87414E-3,0
JILIN-1 09,2019-005B,2026-06-13T15:01:51.790368,15.20485957,.00037932,97.4742,259.6189,101.6609,258.5052,0,U,43943,999,40860,.23271459E-3,.5015E-4,0
EGYPTSAT-A (MISRSAT-A),2019-008A,2026-06-13T14:37:18.030144,14.72304580,.00012696,98.0159,229.4189,93.7930,266.3422,0,U,44047,999,39271,.23996445E-3,.1467E-4,0
EMISAT,2019-018A,2026-06-13T14:37:54.143616,14.43686793,.00175023,98.4652,223.4297,226.0638,133.9108,0,U,44078,999,37954,.17025098E-3,.535E-5,0
